CCSDS_OMM_VERS = 2.0
CREATION_DATE  = 
ORIGINATOR     = 

OBJECT_NAME    = STARLINK-36467
OBJECT_ID      = 2026-003Q
CENTER_NAME    = EARTH
REF_FRAME      = TEME
TIME_SYSTEM    = UTC
MEAN_ELEMENT_THEORY = SGP/SGP4

EPOCH          = 2026-01-29T12:00:02.998944
MEAN_MOTION    = 15.63504310
ECCENTRICITY   = .0001237
INCLINATION    = 42.9994
RA_OF_ASC_NODE = 90.8556
ARG_OF_PERICENTER = 278.1166
MEAN_ANOMALY   = 23.8268

EPHEMERIS_TYPE = 0
CLASSIFICATION_TYPE = U
NORAD_CAT_ID   = 67348
ELEMENT_SET_NO = 999
REV_AT_EPOCH   = 437
BSTAR          = -.24268E-1
MEAN_MOTION_DOT = -.2026831E-1
MEAN_MOTION_DDOT = 0

CCSDS_OMM_VERS = 2.0
CREATION_DATE  = 
ORIGINATOR     = 

OBJECT_NAME    = STARLINK-36457
OBJECT_ID      = 2026-003R
CENTER_NAME    = EARTH
REF_FRAME      = TEME
TIME_SYSTEM    = UTC
MEAN_ELEMENT_THEORY = SGP/SGP4

EPOCH          = 2026-01-29T12:00:02.998944
MEAN_MOTION    = 15.63504448
ECCENTRICITY   = .0001243
INCLINATION    = 42.9994
RA_OF_ASC_NODE = 90.8454
ARG_OF_PERICENTER = 279.6078
MEAN_ANOMALY   = 26.1704

EPHEMERIS_TYPE = 0
CLASSIFICATION_TYPE = U
NORAD_CAT_ID   = 67349
ELEMENT_SET_NO = 999
REV_AT_EPOCH   = 437
BSTAR          = -.2428E-1
MEAN_MOTION_DOT = -.2027689E-1
MEAN_MOTION_DDOT = 0

CCSDS_OMM_VERS = 2.0
CREATION_DATE  = 
ORIGINATOR     = 

OBJECT_NAME    = STARLINK-36475
OBJECT_ID      = 2026-003S
CENTER_NAME    = EARTH
REF_FRAME      = TEME
TIME_SYSTEM    = UTC
MEAN_ELEMENT_THEORY = SGP/SGP4

EPOCH          = 2026-01-29T12:00:02.998944
MEAN_MOTION    = 15.63505211
ECCENTRICITY   = .0001333
INCLINATION    = 42.9994
RA_OF_ASC_NODE = 90.8401
ARG_OF_PERICENTER = 278.6566
MEAN_ANOMALY   = 29.0407

EPHEMERIS_TYPE = 0
CLASSIFICATION_TYPE = U
NORAD_CAT_ID   = 67350
ELEMENT_SET_NO = 999
REV_AT_EPOCH   = 436
BSTAR          = -.24317E-1
MEAN_MOTION_DOT = -.2030525E-1
MEAN_MOTION_DDOT = 0

CCSDS_OMM_VERS = 2.0
CREATION_DATE  = 
ORIGINATOR     = 

OBJECT_NAME    = STARLINK-36478
OBJECT_ID      = 2026-003T
CENTER_NAME    = EARTH
REF_FRAME      = TEME
TIME_SYSTEM    = UTC
MEAN_ELEMENT_THEORY = SGP/SGP4

EPOCH          = 2026-01-29T12:00:02.998944
MEAN_MOTION    = 15.63509686
ECCENTRICITY   = .0001155
INCLINATION    = 42.9995
RA_OF_ASC_NODE = 90.8358
ARG_OF_PERICENTER = 276.7236
MEAN_ANOMALY   = 32.8899

EPHEMERIS_TYPE = 0
CLASSIFICATION_TYPE = U
NORAD_CAT_ID   = 67351
ELEMENT_SET_NO = 999
REV_AT_EPOCH   = 436
BSTAR          = -.24414E-1
MEAN_MOTION_DOT = -.2037814E-1
MEAN_MOTION_DDOT = 0

CCSDS_OMM_VERS = 2.0
CREATION_DATE  = 
ORIGINATOR     = 

OBJECT_NAME    = STARLINK-36479
OBJECT_ID      = 2026-003U
CENTER_NAME    = EARTH
REF_FRAME      = TEME
TIME_SYSTEM    = UTC
MEAN_ELEMENT_THEORY = SGP/SGP4

EPOCH          = 2026-01-29T12:00:02.998944
MEAN_MOTION    = 15.63678053
ECCENTRICITY   = .000102
INCLINATION    = 42.9996
RA_OF_ASC_NODE = 90.8309
ARG_OF_PERICENTER = 287.9587
MEAN_ANOMALY   = 23.5512

EPHEMERIS_TYPE = 0
CLASSIFICATION_TYPE = U
NORAD_CAT_ID   = 67352
ELEMENT_SET_NO = 999
REV_AT_EPOCH   = 437
BSTAR          = -.27705E-1
MEAN_MOTION_DOT = -.2336466E-1
MEAN_MOTION_DDOT = 0

CCSDS_OMM_VERS = 2.0
CREATION_DATE  = 
ORIGINATOR     = 

OBJECT_NAME    = STARLINK-36474
OBJECT_ID      = 2026-003V
CENTER_NAME    = EARTH
REF_FRAME      = TEME
TIME_SYSTEM    = UTC
MEAN_ELEMENT_THEORY = SGP/SGP4

EPOCH          = 2026-01-29T12:00:02.998944
MEAN_MOTION    = 15.63502483
ECCENTRICITY   = .0001388
INCLINATION    = 42.9995
RA_OF_ASC_NODE = 90.8263
ARG_OF_PERICENTER = 280.0468
MEAN_ANOMALY   = 33.3994

EPHEMERIS_TYPE = 0
CLASSIFICATION_TYPE = U
NORAD_CAT_ID   = 67353
ELEMENT_SET_NO = 999
REV_AT_EPOCH   = 437
BSTAR          = -.2423E-1
MEAN_MOTION_DOT = -.2024062E-1
MEAN_MOTION_DDOT = 0

CCSDS_OMM_VERS = 2.0
CREATION_DATE  = 
ORIGINATOR     = 

OBJECT_NAME    = STARLINK-36448
OBJECT_ID      = 2026-003W
CENTER_NAME    = EARTH
REF_FRAME      = TEME
TIME_SYSTEM    = UTC
MEAN_ELEMENT_THEORY = SGP/SGP4

EPOCH          = 2026-01-29T12:00:02.998944
MEAN_MOTION    = 15.63505425
ECCENTRICITY   = .0001351
INCLINATION    = 42.9998
RA_OF_ASC_NODE = 90.8114
ARG_OF_PERICENTER = 277.5567
MEAN_ANOMALY   = 41.6408

EPHEMERIS_TYPE = 0
CLASSIFICATION_TYPE = U
NORAD_CAT_ID   = 67354
ELEMENT_SET_NO = 999
REV_AT_EPOCH   = 437
BSTAR          = -.24284E-1
MEAN_MOTION_DOT = -.2028177E-1
MEAN_MOTION_DDOT = 0

CCSDS_OMM_VERS = 2.0
CREATION_DATE  = 
ORIGINATOR     = 

OBJECT_NAME    = STARLINK-36477
OBJECT_ID      = 2026-003X
CENTER_NAME    = EARTH
REF_FRAME      = TEME
TIME_SYSTEM    = UTC
MEAN_ELEMENT_THEORY = SGP/SGP4

EPOCH          = 2026-01-29T12:00:02.998944
MEAN_MOTION    = 15.63502968
ECCENTRICITY   = .0001285
INCLINATION    = 42.9994
RA_OF_ASC_NODE = 90.8214
ARG_OF_PERICENTER = 279.4325
MEAN_ANOMALY   = 35.9308

EPHEMERIS_TYPE = 0
CLASSIFICATION_TYPE = U
NORAD_CAT_ID   = 67355
ELEMENT_SET_NO = 999
REV_AT_EPOCH   = 436
BSTAR          = -.24242E-1
MEAN_MOTION_DOT = -.2024841E-1
MEAN_MOTION_DDOT = 0

CCSDS_OMM_VERS = 2.0
CREATION_DATE  = 
ORIGINATOR     = 

OBJECT_NAME    = STARLINK-36429
OBJECT_ID      = 2026-003Y
CENTER_NAME    = EARTH
REF_FRAME      = TEME
TIME_SYSTEM    = UTC
MEAN_ELEMENT_THEORY = SGP/SGP4

EPOCH          = 2026-01-29T12:00:02.998944
MEAN_MOTION    = 15.63503486
ECCENTRICITY   = .0001196
INCLINATION    = 42.9997
RA_OF_ASC_NODE = 90.8165
ARG_OF_PERICENTER = 281.1813
MEAN_ANOMALY   = 36.0965

EPHEMERIS_TYPE = 0
CLASSIFICATION_TYPE = U
NORAD_CAT_ID   = 67356
ELEMENT_SET_NO = 999
REV_AT_EPOCH   = 436
BSTAR          = -.24227E-1
MEAN_MOTION_DOT = -.2023722E-1
MEAN_MOTION_DDOT = 0

CCSDS_OMM_VERS = 2.0
CREATION_DATE  = 
ORIGINATOR     = 

OBJECT_NAME    = STARLINK-36456
OBJECT_ID      = 2026-003Z
CENTER_NAME    = EARTH
REF_FRAME      = TEME
TIME_SYSTEM    = UTC
MEAN_ELEMENT_THEORY = SGP/SGP4

EPOCH          = 2026-01-29T12:00:02.998944
MEAN_MOTION    = 15.63505149
ECCENTRICITY   = .0001283
INCLINATION    = 42.9996
RA_OF_ASC_NODE = 90.8059
ARG_OF_PERICENTER = 280.4260
MEAN_ANOMALY   = 40.6891

EPHEMERIS_TYPE = 0
CLASSIFICATION_TYPE = U
NORAD_CAT_ID   = 67357
ELEMENT_SET_NO = 999
REV_AT_EPOCH   = 437
BSTAR          = -.24297E-1
MEAN_MOTION_DOT = -.2029046E-1
MEAN_MOTION_DDOT = 0

CCSDS_OMM_VERS = 2.0
CREATION_DATE  = 
ORIGINATOR     = 

OBJECT_NAME    = STARLINK-36466
OBJECT_ID      = 2026-003AA
CENTER_NAME    = EARTH
REF_FRAME      = TEME
TIME_SYSTEM    = UTC
MEAN_ELEMENT_THEORY = SGP/SGP4

EPOCH          = 2026-01-29T12:00:02.998944
MEAN_MOTION    = 15.63504851
ECCENTRICITY   = .0001298
INCLINATION    = 42.9996
RA_OF_ASC_NODE = 90.8010
ARG_OF_PERICENTER = 282.2823
MEAN_ANOMALY   = 40.7487

EPHEMERIS_TYPE = 0
CLASSIFICATION_TYPE = U
NORAD_CAT_ID   = 67358
ELEMENT_SET_NO = 999
REV_AT_EPOCH   = 437
BSTAR          = -.24281E-1
MEAN_MOTION_DOT = -.2027835E-1
MEAN_MOTION_DDOT = 0

CCSDS_OMM_VERS = 2.0
CREATION_DATE  = 
ORIGINATOR     = 

OBJECT_NAME    = STARLINK-36499
OBJECT_ID      = 2026-003AB
CENTER_NAME    = EARTH
REF_FRAME      = TEME
TIME_SYSTEM    = UTC
MEAN_ELEMENT_THEORY = SGP/SGP4

EPOCH          = 2026-01-29T12:00:02.998944
MEAN_MOTION    = 15.63500456
ECCENTRICITY   = .0001337
INCLINATION    = 42.9995
RA_OF_ASC_NODE = 90.7962
ARG_OF_PERICENTER = 277.9613
MEAN_ANOMALY   = 46.9948

EPHEMERIS_TYPE = 0
CLASSIFICATION_TYPE = U
NORAD_CAT_ID   = 67359
ELEMENT_SET_NO = 999
REV_AT_EPOCH   = 437
BSTAR          = -.24271E-1
MEAN_MOTION_DOT = -.2026838E-1
MEAN_MOTION_DDOT = 0

