STARLINK-36467          
1 67348U 26003Q   26029.50003471 -.02026831  00000+0 -24268-1 0  9994
2 67348  42.9994  90.8556 0001237 278.1166  23.8268 15.63504310  4375
STARLINK-36457          
1 67349U 26003R   26029.50003471 -.02027689  00000+0 -24280-1 0  9991
2 67349  42.9994  90.8454 0001243 279.6078  26.1704 15.63504448  4371
STARLINK-36475          
1 67350U 26003S   26029.50003471 -.02030525  00000+0 -24317-1 0  9997
2 67350  42.9994  90.8401 0001333 278.6566  29.0407 15.63505211  4366
STARLINK-36478          
1 67351U 26003T   26029.50003471 -.02037814  00000+0 -24414-1 0  9994
2 67351  42.9995  90.8358 0001155 276.7236  32.8899 15.63509686  4361
STARLINK-36479          
1 67352U 26003U   26029.50003471 -.02336466  00000+0 -27705-1 0  9996
2 67352  42.9996  90.8309 0001020 287.9587  23.5512 15.63678053  4378
STARLINK-36474          
1 67353U 26003V   26029.50003471 -.02024062  00000+0 -24230-1 0  9993
2 67353  42.9995  90.8263 0001388 280.0468  33.3994 15.63502483  4372
STARLINK-36448          
1 67354U 26003W   26029.50003471 -.02028177  00000+0 -24284-1 0  9994
2 67354  42.9998  90.8114 0001351 277.5567  41.6408 15.63505425  4373
STARLINK-36477          
1 67355U 26003X   26029.50003471 -.02024841  00000+0 -24242-1 0  9993
2 67355  42.9994  90.8214 0001285 279.4325  35.9308 15.63502968  4363
STARLINK-36429          
1 67356U 26003Y   26029.50003471 -.02023722  00000+0 -24227-1 0  9994
2 67356  42.9997  90.8165 0001196 281.1813  36.0965 15.63503486  4362
STARLINK-36456          
1 67357U 26003Z   26029.50003471 -.02029046  00000+0 -24297-1 0  9997
2 67357  42.9996  90.8059 0001283 280.4260  40.6891 15.63505149  4377
STARLINK-36466          
1 67358U 26003AA  26029.50003471 -.02027835  00000+0 -24281-1 0  9995
2 67358  42.9996  90.8010 0001298 282.2823  40.7487 15.63504851  4377
STARLINK-36499          
1 67359U 26003AB  26029.50003471 -.02026838  00000+0 -24271-1 0  9997
2 67359  42.9995  90.7962 0001337 277.9613  46.9948 15.63500456  4371
